OBJECT_NAME,OBJECT_ID,EPOCH,MEAN_MOTION,ECCENTRICITY,INCLINATION,RA_OF_ASC_NODE,ARG_OF_PERICENTER,MEAN_ANOMALY,EPHEMERIS_TYPE,CLASSIFICATION_TYPE,NORAD_CAT_ID,ELEMENT_SET_NO,REV_AT_EPOCH,BSTAR,MEAN_MOTION_DOT,MEAN_MOTION_DDOT
ONEWEB-0309,2021-075W,2026-07-20T10:12:00.108864,13.17648091,.00023173,87.9153,359.2509,90.5454,269.5943,0,U,49095,999,23795,-.34466528E-4,-.1E-7,0
ONEWEB-0310,2021-075X,2026-07-20T09:34:14.629152,13.12442619,.0001867,87.8970,344.0759,96.9922,263.1419,0,U,49096,999,23954,.77399543E-3,.291E-5,0
ONEWEB-0311,2021-075Y,2026-07-20T08:32:23.251488,13.17648187,.00015953,87.9151,359.2647,81.1534,278.9778,0,U,49097,999,23799,.81504637E-4,.45E-6,0
ONEWEB-0312,2021-075Z,2026-07-20T08:54:15.838560,13.17648559,.00019545,87.9150,359.2717,85.1086,275.0268,0,U,49098,999,23797,.34265444E-4,.26E-6,0
ONEWEB-0313,2021-075AA,2026-07-20T09:01:20.216352,13.17648119,.00018089,87.9150,359.2755,90.1128,270.0211,0,U,49099,999,23796,-.26973928E-3,-.92E-6,0
ONEWEB-0314,2021-075AB,2026-07-20T10:02:16.717920,13.17647823,.0001999,87.9159,359.2440,82.8709,277.2650,0,U,49100,999,23794,.852248E-6,.13E-6,0
ONEWEB-0315,2021-075AC,2026-07-20T08:55:13.059552,13.12443792,.00015317,87.8978,344.0483,88.9868,271.1436,0,U,49101,999,23952,.58251451E-3,.222E-5,0
ONEWEB-0316,2021-075AD,2026-07-20T09:25:42.863808,13.18686346,.00019737,87.9196,328.8535,99.4085,260.7270,0,U,49102,999,24158,.10716914E-3,.55E-6,0
ONEWEB-0317,2021-075AE,2026-07-20T09:00:05.961600,13.12443833,.00025318,87.8973,344.0710,104.0829,256.0581,0,U,49103,999,23954,.88440927E-3,.331E-5,0
ONEWEB-0318,2021-075AF,2026-07-20T09:20:39.517728,13.18687166,.00017805,87.9199,328.8565,94.7733,265.3602,0,U,49104,999,24154,.24476663E-3,.109E-5,0
ONEWEB-0319,2021-075AG,2026-07-20T08:34:48.946944,13.17648544,.00014275,87.9154,359.2689,81.2967,278.8327,0,U,49105,999,23797,.22282502E-3,.99E-6,0
ONEWEB-0323,2021-075AH,2026-07-20T08:33:15.203808,13.12443724,.00015291,87.8977,344.0565,81.6555,278.4747,0,U,49106,999,23890,-.82072056E-3,-.283E-5,0
ONEWEB-0329,2021-075AJ,2026-07-20T08:46:57.166752,13.17648168,.00019031,87.9155,359.2685,88.6086,271.5263,0,U,49107,999,23795,.22148226E-3,.99E-6,0
ONEWEB-0330,2021-075AK,2026-07-20T08:52:00.616512,13.17647542,.00019799,87.9154,359.2795,89.1882,270.9477,0,U,49108,999,23799,.1052916E-3,.54E-6,0
ONEWEB-0292,2021-083A,2026-07-20T07:16:02.871264,13.13470369,.00018057,87.8981,313.6481,99.3294,260.8040,0,U,49186,999,23527,.1101304E-2,.415E-5,0
ONEWEB-0303,2021-083B,2026-07-20T09:15:48.065472,13.18684683,.00017542,87.9199,328.8554,95.9286,264.2047,0,U,49187,999,23435,.2217304E-4,.22E-6,0
ONEWEB-0306,2021-083C,2026-07-20T07:11:58.858656,13.18685908,.0002148,87.9203,328.8615,100.2629,259.8745,0,U,49188,999,23438,-.27382767E-3,-.95E-6,0
ONEWEB-0307,2021-083D,2026-07-20T08:57:12.559392,13.13468899,.00018866,87.8980,313.6320,96.5581,263.5763,0,U,49189,999,23528,.94810859E-3,.359E-5,0
ONEWEB-0320,2021-083E,2026-07-20T07:41:05.548704,13.18685264,.00019614,87.9192,328.8722,99.7838,260.3516,0,U,49190,999,23434,-.59614406E-4,-.11E-6,0
ONEWEB-0321,2021-083F,2026-07-20T05:32:38.482944,13.20770581,.00021601,87.9177,267.8500,103.1899,256.9475,0,U,49191,999,24119,.10794237E-3,.57E-6,0
ONEWEB-0322,2021-083G,2026-07-20T14:20:12.639264,13.13471462,.00021421,87.8979,313.5871,111.2153,248.9205,0,U,49192,999,23530,.62392628E-3,.241E-5,0
ONEWEB-0324,2021-083H,2026-07-20T14:19:18.785280,13.18687481,.00020714,87.9208,328.8084,95.2228,264.9140,0,U,49193,999,23440,.28991905E-3,.127E-5,0
ONEWEB-0325,2021-083J,2026-07-20T14:24:09.220608,13.18687059,.00018472,87.9193,328.8126,100.5760,259.5580,0,U,49194,999,23441,.252442E-6,.13E-6,0
ONEWEB-0326,2021-083K,2026-07-20T09:18:26.997408,13.18686536,.00016453,87.9201,328.8554,95.3979,264.7341,0,U,49195,999,23437,.1864405E-3,.86E-6,0
ONEWEB-0327,2021-083L,2026-07-20T14:45:50.014944,13.18686739,.00014943,87.9194,328.8118,99.1492,260.9809,0,U,49196,999,23442,.27070497E-3,.12E-5,0
ONEWEB-0328,2021-083M,2026-07-20T14:05:34.934496,13.13470863,.00020528,87.8989,313.5654,96.8545,263.2817,0,U,49197,999,23528,-.47459992E-4,-.5E-7,0
ONEWEB-0331,2021-083N,2026-07-20T09:08:31.521696,13.18685996,.00016483,87.9203,328.8507,91.0458,269.0863,0,U,49198,999,23438,.37714095E-3,.162E-5,0
ONEWEB-0333,2021-083P,2026-07-20T13:58:16.032864,13.13470383,.00019016,87.8980,313.5898,101.5372,258.5971,0,U,49199,999,23529,-.5122824E-3,-.174E-5,0
ONEWEB-0334,2021-083Q,2026-07-20T05:53:14.629344,13.20769560,.00025879,87.9180,267.8575,113.7051,246.4354,0,U,49200,999,24115,.60751983E-4,.38E-6,0
ONEWEB-0335,2021-083R,2026-07-20T08:21:52.036416,13.13469613,.00018154,87.8979,313.6335,96.4001,263.7335,0,U,49201,999,23527,-.6391334E-3,-.221E-5,0
