ONEWEB-0309             
1 49095U 21075W   26201.42500126 -.00000001  00000+0 -34467-4 0  9993
2 49095  87.9153 359.2509 0002317  90.5454 269.5943 13.17648091237959
ONEWEB-0310             
1 49096U 21075X   26201.39878043  .00000291  00000+0  77400-3 0  9998
2 49096  87.8970 344.0759 0001867  96.9922 263.1419 13.12442619239542
ONEWEB-0311             
1 49097U 21075Y   26201.35582467  .00000045  00000+0  81505-4 0  9996
2 49097  87.9151 359.2647 0001595  81.1534 278.9778 13.17648187237994
ONEWEB-0312             
1 49098U 21075Z   26201.37101665  .00000026  00000+0  34265-4 0  9996
2 49098  87.9150 359.2717 0001954  85.1086 275.0268 13.17648559237970
ONEWEB-0313             
1 49099U 21075AA  26201.37592843 -.00000092  00000+0 -26974-3 0  9991
2 49099  87.9150 359.2755 0001808  90.1128 270.0211 13.17648119237968
ONEWEB-0314             
1 49100U 21075AB  26201.41824905  .00000013  00000+0  85225-6 0  9994
2 49100  87.9159 359.2440 0001999  82.8709 277.2650 13.17647823237940
ONEWEB-0315             
1 49101U 21075AC  26201.37167893  .00000222  00000+0  58251-3 0  9994
2 49101  87.8978 344.0483 0001531  88.9868 271.1436 13.12443792239528
ONEWEB-0316             
1 49102U 21075AD  26201.39285722  .00000055  00000+0  10717-3 0  9998
2 49102  87.9196 328.8535 0001973  99.4085 260.7270 13.18686346241587
ONEWEB-0317             
1 49103U 21075AE  26201.37506900  .00000331  00000+0  88441-3 0  9997
2 49103  87.8973 344.0710 0002531 104.0829 256.0581 13.12443833239547
ONEWEB-0318             
1 49104U 21075AF  26201.38934627  .00000109  00000+0  24477-3 0  9992
2 49104  87.9199 328.8565 0001780  94.7733 265.3602 13.18687166241546
ONEWEB-0319             
1 49105U 21075AG  26201.35751096  .00000099  00000+0  22283-3 0  9998
2 49105  87.9154 359.2689 0001427  81.2967 278.8327 13.17648544237972
ONEWEB-0323             
1 49106U 21075AH  26201.35642597 -.00000283  00000+0 -82072-3 0  9993
2 49106  87.8977 344.0565 0001529  81.6555 278.4747 13.12443724238904
ONEWEB-0329             
1 49107U 21075AJ  26201.36593943  .00000099  00000+0  22148-3 0  9996
2 49107  87.9155 359.2685 0001903  88.6086 271.5263 13.17648168237952
ONEWEB-0330             
1 49108U 21075AK  26201.36945158  .00000054  00000+0  10529-3 0  9997
2 49108  87.9154 359.2795 0001979  89.1882 270.9477 13.17647542237996
ONEWEB-0292             
1 49186U 21083A   26201.30281101  .00000415  00000+0  11013-2 0  9996
2 49186  87.8981 313.6481 0001805  99.3294 260.8040 13.13470369235273
ONEWEB-0303             
1 49187U 21083B   26201.38597298  .00000022  00000+0  22173-4 0  9997
2 49187  87.9199 328.8554 0001754  95.9286 264.2047 13.18684683234355
ONEWEB-0306             
1 49188U 21083C   26201.29998679 -.00000095  00000+0 -27383-3 0  9995
2 49188  87.9203 328.8615 0002148 100.2629 259.8745 13.18685908234388
ONEWEB-0307             
1 49189U 21083D   26201.37306203  .00000359  00000+0  94811-3 0  9992
2 49189  87.8980 313.6320 0001886  96.5581 263.5763 13.13468899235282
ONEWEB-0320             
1 49190U 21083E   26201.32020311 -.00000011  00000+0 -59614-4 0  9992
2 49190  87.9192 328.8722 0001961  99.7838 260.3516 13.18685264234347
ONEWEB-0321             
1 49191U 21083F   26201.23100096  .00000057  00000+0  10794-3 0  9995
2 49191  87.9177 267.8500 0002160 103.1899 256.9475 13.20770581241192
ONEWEB-0322             
1 49192U 21083G   26201.59736851  .00000241  00000+0  62393-3 0  9996
2 49192  87.8979 313.5871 0002142 111.2153 248.9205 13.13471462235301
ONEWEB-0324             
1 49193U 21083H   26201.59674520  .00000127  00000+0  28992-3 0  9991
2 49193  87.9208 328.8084 0002071  95.2228 264.9140 13.18687481234409
ONEWEB-0325             
1 49194U 21083J   26201.60010672  .00000013  00000+0  25244-6 0  9990
2 49194  87.9193 328.8126 0001847 100.5760 259.5580 13.18687059234411
ONEWEB-0326             
1 49195U 21083K   26201.38781247  .00000086  00000+0  18644-3 0  9992
2 49195  87.9201 328.8554 0001645  95.3979 264.7341 13.18686536234373
ONEWEB-0327             
1 49196U 21083L   26201.61516221  .00000120  00000+0  27070-3 0  9999
2 49196  87.9194 328.8118 0001494  99.1492 260.9809 13.18686739234423
ONEWEB-0328             
1 49197U 21083M   26201.58720989 -.00000005  00000+0 -47460-4 0  9994
2 49197  87.8989 313.5654 0002052  96.8545 263.2817 13.13470863235289
ONEWEB-0331             
1 49198U 21083N   26201.38092039  .00000162  00000+0  37714-3 0  9993
2 49198  87.9203 328.8507 0001648  91.0458 269.0863 13.18685996234381
ONEWEB-0333             
1 49199U 21083P   26201.58213001 -.00000174  00000+0 -51228-3 0  9991
2 49199  87.8980 313.5898 0001901 101.5372 258.5971 13.13470383235292
ONEWEB-0334             
1 49200U 21083Q   26201.24530821  .00000038  00000+0  60752-4 0  9999
2 49200  87.9180 267.8575 0002587 113.7051 246.4354 13.20769560241150
ONEWEB-0335             
1 49201U 21083R   26201.34851894 -.00000221  00000+0 -63913-3 0  9994
2 49201  87.8979 313.6335 0001815  96.4001 263.7335 13.13469613235270
